STARLINK-5341           
1 55287U 23010U   26070.54025471 -.00000906  00000+0 -68183-4 0  9992
2 55287  70.0013 359.9389 0002649 281.6541  78.4321 14.98331433174033
STARLINK-5311           
1 55288U 23010V   26070.50003471 -.00048434  00000+0 -40767-2 0  9999
2 55288  70.0021  19.8786 0003085 271.5025 342.1274 14.98356176  5791
STARLINK-5320           
1 55289U 23010W   26070.26926740 -.00000874  00000+0 -65463-4 0  9994
2 55289  70.0014  20.5614 0003160 272.4284  87.6513 14.98312776173504
STARLINK-5266           
1 55290U 23010X   26070.26091855  .00000431  00000+0  43938-4 0  9996
2 55290  70.0014  20.5317 0003049 267.9414  92.1396 14.98326872173508
STARLINK-5327           
1 55291U 23010Y   26070.27761016  .00001174  00000+0  10617-3 0  9993
2 55291  70.0012  20.5870 0002922 270.8930  89.1894 14.98331861173509
STARLINK-5325           
1 55292U 23010Z   26070.18163385 -.00000608  00000+0 -43180-4 0  9994
2 55292  70.0018  20.6552 0002970 263.7212  96.3609 14.98337067173497
STARLINK-5287           
1 55293U 23010AA  26070.25256095 -.00000040  00000+0  44450-5 0  9995
2 55293  70.0016  20.5043 0003103 266.5101  93.5703 14.98333444173508
STARLINK-5286           
1 55294U 23010AB  26070.32372326  .00000492  00000+0  49057-4 0  9997
2 55294  70.0003  40.2148 0002945 268.6470  91.4351 14.98331876173025
STARLINK-5293           
1 55295U 23010AC  26070.29870773 -.00001820  00000+0 -14481-3 0  9993
2 55295  70.0012  40.5337 0002865 263.4957  96.5876 14.98323319173024
STARLINK-5285           
1 55296U 23010AD  26070.23588458 -.00003173  00000+0 -25832-3 0  9999
2 55296  70.0001  20.4426 0003526 273.1702  86.9053 14.98323309174389
STARLINK-5284           
1 55297U 23010AE  26070.17746050 -.00001883  00000+0 -15010-3 0  9990
2 55297  70.0018  20.6415 0002619 261.0731  99.0132 14.98318964173493
STARLINK-5270           
1 55299U 23010AG  26070.23169946  .00000860  00000+0  79902-4 0  9995
2 55299  70.0011  20.4311 0003158 274.6317  85.4481 14.98326817174381
STARLINK-5308           
1 55300U 23010AH  26070.29427815  .00000481  00000+0  48091-4 0  9990
2 55300  70.0012  20.2454 0002939 270.8777  89.2046 14.98332199173518
STARLINK-5321           
1 55302U 23010AK  26070.17328493 -.00001766  00000+0 -14016-3 0  9999
2 55302  70.0004  20.6233 0003466 269.6111  90.4651 14.98343500173495
STARLINK-5322           
1 55303U 23010AL  26070.31120391 -.00000916  00000+0 -69024-4 0  9999
2 55303  70.0015  40.1713 0002937 269.1877  90.8946 14.98326467173027
STARLINK-5318           
1 55304U 23010AM  26070.22334409  .00000132  00000+0  18893-4 0  9993
2 55304  70.0023  20.3988 0002999 269.3459  90.7356 14.98333846173503
STARLINK-5316           
1 55305U 23010AN  26070.28595574  .00000572  00000+0  55691-4 0  9997
2 55305  70.0015  20.6203 0002858 262.9123  97.1711 14.98339301173518
