[{"OBJECT_NAME":"STARLINK-5341","OBJECT_ID":"2023-010U","EPOCH":"2026-03-11T12:57:58.006944","MEAN_MOTION":14.98331433,"ECCENTRICITY":0.0002649,"INCLINATION":70.0013,"RA_OF_ASC_NODE":359.9389,"ARG_OF_PERICENTER":281.6541,"MEAN_ANOMALY":78.4321,"EPHEMERIS_TYPE":0,"CLASSIFICATION_TYPE":"U","NORAD_CAT_ID":55287,"ELEMENT_SET_NO":999,"REV_AT_EPOCH":17403,"BSTAR":-6.8183e-5,"MEAN_MOTION_DOT":-9.06e-6,"MEAN_MOTION_DDOT":0},{"OBJECT_NAME":"STARLINK-5311","OBJECT_ID":"2023-010V","EPOCH":"2026-03-11T12:00:02.998944","MEAN_MOTION":14.98356176,"ECCENTRICITY":0.0003085,"INCLINATION":70.0021,"RA_OF_ASC_NODE":19.8786,"ARG_OF_PERICENTER":271.5025,"MEAN_ANOMALY":342.1274,"EPHEMERIS_TYPE":0,"CLASSIFICATION_TYPE":"U","NORAD_CAT_ID":55288,"ELEMENT_SET_NO":999,"REV_AT_EPOCH":579,"BSTAR":-0.0040767,"MEAN_MOTION_DOT":-0.00048434,"MEAN_MOTION_DDOT":0},{"OBJECT_NAME":"STARLINK-5320","OBJECT_ID":"2023-010W","EPOCH":"2026-03-11T06:27:44.703360","MEAN_MOTION":14.98312776,"ECCENTRICITY":0.000316,"INCLINATION":70.0014,"RA_OF_ASC_NODE":20.5614,"ARG_OF_PERICENTER":272.4284,"MEAN_ANOMALY":87.6513,"EPHEMERIS_TYPE":0,"CLASSIFICATION_TYPE":"U","NORAD_CAT_ID":55289,"ELEMENT_SET_NO":999,"REV_AT_EPOCH":17350,"BSTAR":-6.5463e-5,"MEAN_MOTION_DOT":-8.74e-6,"MEAN_MOTION_DDOT":0},{"OBJECT_NAME":"STARLINK-5266","OBJECT_ID":"2023-010X","EPOCH":"2026-03-11T06:15:43.362720","MEAN_MOTION":14.98326872,"ECCENTRICITY":0.0003049,"INCLINATION":70.0014,"RA_OF_ASC_NODE":20.5317,"ARG_OF_PERICENTER":267.9414,"MEAN_ANOMALY":92.1396,"EPHEMERIS_TYPE":0,"CLASSIFICATION_TYPE":"U","NORAD_CAT_ID":55290,"ELEMENT_SET_NO":999,"REV_AT_EPOCH":17350,"BSTAR":4.3938e-5,"MEAN_MOTION_DOT":4.31e-6,"MEAN_MOTION_DDOT":0},{"OBJECT_NAME":"STARLINK-5327","OBJECT_ID":"2023-010Y","EPOCH":"2026-03-11T06:39:45.517824","MEAN_MOTION":14.98331861,"ECCENTRICITY":0.0002922,"INCLINATION":70.0012,"RA_OF_ASC_NODE":20.587,"ARG_OF_PERICENTER":270.893,"MEAN_ANOMALY":89.1894,"EPHEMERIS_TYPE":0,"CLASSIFICATION_TYPE":"U","NORAD_CAT_ID":55291,"ELEMENT_SET_NO":999,"REV_AT_EPOCH":17350,"BSTAR":0.00010617,"MEAN_MOTION_DOT":1.174e-5,"MEAN_MOTION_DDOT":0},{"OBJECT_NAME":"STARLINK-5325","OBJECT_ID":"2023-010Z","EPOCH":"2026-03-11T04:21:33.164640","MEAN_MOTION":14.98337067,"ECCENTRICITY":0.00029703,"INCLINATION":70.0018,"RA_OF_ASC_NODE":20.6552,"ARG_OF_PERICENTER":263.7212,"MEAN_ANOMALY":96.3609,"EPHEMERIS_TYPE":0,"CLASSIFICATION_TYPE":"U","NORAD_CAT_ID":55292,"ELEMENT_SET_NO":999,"REV_AT_EPOCH":17349,"BSTAR":-4.3179668e-5,"MEAN_MOTION_DOT":-6.08e-6,"MEAN_MOTION_DDOT":0},{"OBJECT_NAME":"STARLINK-5287","OBJECT_ID":"2023-010AA","EPOCH":"2026-03-11T06:03:41.266080","MEAN_MOTION":14.98333444,"ECCENTRICITY":0.0003103,"INCLINATION":70.0016,"RA_OF_ASC_NODE":20.5043,"ARG_OF_PERICENTER":266.5101,"MEAN_ANOMALY":93.5703,"EPHEMERIS_TYPE":0,"CLASSIFICATION_TYPE":"U","NORAD_CAT_ID":55293,"ELEMENT_SET_NO":999,"REV_AT_EPOCH":17350,"BSTAR":4.445e-6,"MEAN_MOTION_DOT":-4.0e-7,"MEAN_MOTION_DDOT":0},{"OBJECT_NAME":"STARLINK-5286","OBJECT_ID":"2023-010AB","EPOCH":"2026-03-11T07:46:09.689664","MEAN_MOTION":14.98331876,"ECCENTRICITY":0.0002945,"INCLINATION":70.0003,"RA_OF_ASC_NODE":40.2148,"ARG_OF_PERICENTER":268.647,"MEAN_ANOMALY":91.4351,"EPHEMERIS_TYPE":0,"CLASSIFICATION_TYPE":"U","NORAD_CAT_ID":55294,"ELEMENT_SET_NO":999,"REV_AT_EPOCH":17302,"BSTAR":4.9057e-5,"MEAN_MOTION_DOT":4.92e-6,"MEAN_MOTION_DDOT":0},{"OBJECT_NAME":"STARLINK-5293","OBJECT_ID":"2023-010AC","EPOCH":"2026-03-11T07:10:08.347872","MEAN_MOTION":14.98323319,"ECCENTRICITY":0.0002865,"INCLINATION":70.0012,"RA_OF_ASC_NODE":40.5337,"ARG_OF_PERICENTER":263.4957,"MEAN_ANOMALY":96.5876,"EPHEMERIS_TYPE":0,"CLASSIFICATION_TYPE":"U","NORAD_CAT_ID":55295,"ELEMENT_SET_NO":999,"REV_AT_EPOCH":17302,"BSTAR":-0.00014481,"MEAN_MOTION_DOT":-1.82e-5,"MEAN_MOTION_DDOT":0},{"OBJECT_NAME":"STARLINK-5285","OBJECT_ID":"2023-010AD","EPOCH":"2026-03-11T05:39:40.427712","MEAN_MOTION":14.98323309,"ECCENTRICITY":0.0003526,"INCLINATION":70.0001,"RA_OF_ASC_NODE":20.4426,"ARG_OF_PERICENTER":273.1702,"MEAN_ANOMALY":86.9053,"EPHEMERIS_TYPE":0,"CLASSIFICATION_TYPE":"U","NORAD_CAT_ID":55296,"ELEMENT_SET_NO":999,"REV_AT_EPOCH":17438,"BSTAR":-0.00025832,"MEAN_MOTION_DOT":-3.173e-5,"MEAN_MOTION_DDOT":0},{"OBJECT_NAME":"STARLINK-5284","OBJECT_ID":"2023-010AE","EPOCH":"2026-03-11T04:15:32.587200","MEAN_MOTION":14.98318964,"ECCENTRICITY":0.0002619,"INCLINATION":70.0018,"RA_OF_ASC_NODE":20.6415,"ARG_OF_PERICENTER":261.0731,"MEAN_ANOMALY":99.0132,"EPHEMERIS_TYPE":0,"CLASSIFICATION_TYPE":"U","NORAD_CAT_ID":55297,"ELEMENT_SET_NO":999,"REV_AT_EPOCH":17349,"BSTAR":-0.00015009963,"MEAN_MOTION_DOT":-1.883e-5,"MEAN_MOTION_DDOT":0},{"OBJECT_NAME":"STARLINK-5270","OBJECT_ID":"2023-010AG","EPOCH":"2026-03-11T05:33:38.833344","MEAN_MOTION":14.98326817,"ECCENTRICITY":0.0003158,"INCLINATION":70.0011,"RA_OF_ASC_NODE":20.4311,"ARG_OF_PERICENTER":274.6317,"MEAN_ANOMALY":85.4481,"EPHEMERIS_TYPE":0,"CLASSIFICATION_TYPE":"U","NORAD_CAT_ID":55299,"ELEMENT_SET_NO":999,"REV_AT_EPOCH":17438,"BSTAR":7.9902e-5,"MEAN_MOTION_DOT":8.6e-6,"MEAN_MOTION_DDOT":0},{"OBJECT_NAME":"STARLINK-5308","OBJECT_ID":"2023-010AH","EPOCH":"2026-03-11T07:03:45.632160","MEAN_MOTION":14.98332199,"ECCENTRICITY":0.0002939,"INCLINATION":70.0012,"RA_OF_ASC_NODE":20.2454,"ARG_OF_PERICENTER":270.8777,"MEAN_ANOMALY":89.2046,"EPHEMERIS_TYPE":0,"CLASSIFICATION_TYPE":"U","NORAD_CAT_ID":55300,"ELEMENT_SET_NO":999,"REV_AT_EPOCH":17351,"BSTAR":4.8091e-5,"MEAN_MOTION_DOT":4.81e-6,"MEAN_MOTION_DDOT":0},{"OBJECT_NAME":"STARLINK-5321","OBJECT_ID":"2023-010AK","EPOCH":"2026-03-11T04:09:31.817952","MEAN_MOTION":14.983435,"ECCENTRICITY":0.00034663,"INCLINATION":70.0004,"RA_OF_ASC_NODE":20.6233,"ARG_OF_PERICENTER":269.6111,"MEAN_ANOMALY":90.4651,"EPHEMERIS_TYPE":0,"CLASSIFICATION_TYPE":"U","NORAD_CAT_ID":55302,"ELEMENT_SET_NO":999,"REV_AT_EPOCH":17349,"BSTAR":-0.00014015726,"MEAN_MOTION_DOT":-1.766e-5,"MEAN_MOTION_DDOT":0},{"OBJECT_NAME":"STARLINK-5322","OBJECT_ID":"2023-010AL","EPOCH":"2026-03-11T07:28:08.017824","MEAN_MOTION":14.98326467,"ECCENTRICITY":0.0002937,"INCLINATION":70.0015,"RA_OF_ASC_NODE":40.1713,"ARG_OF_PERICENTER":269.1877,"MEAN_ANOMALY":90.8946,"EPHEMERIS_TYPE":0,"CLASSIFICATION_TYPE":"U","NORAD_CAT_ID":55303,"ELEMENT_SET_NO":999,"REV_AT_EPOCH":17302,"BSTAR":-6.9024e-5,"MEAN_MOTION_DOT":-9.16e-6,"MEAN_MOTION_DDOT":0},{"OBJECT_NAME":"STARLINK-5318","OBJECT_ID":"2023-010AM","EPOCH":"2026-03-11T05:21:36.929376","MEAN_MOTION":14.98333846,"ECCENTRICITY":0.0002999,"INCLINATION":70.0023,"RA_OF_ASC_NODE":20.3988,"ARG_OF_PERICENTER":269.3459,"MEAN_ANOMALY":90.7356,"EPHEMERIS_TYPE":0,"CLASSIFICATION_TYPE":"U","NORAD_CAT_ID":55304,"ELEMENT_SET_NO":999,"REV_AT_EPOCH":17350,"BSTAR":1.8893e-5,"MEAN_MOTION_DOT":1.32e-6,"MEAN_MOTION_DDOT":0},{"OBJECT_NAME":"STARLINK-5316","OBJECT_ID":"2023-010AN","EPOCH":"2026-03-11T06:51:46.575936","MEAN_MOTION":14.98339301,"ECCENTRICITY":0.0002858,"INCLINATION":70.0015,"RA_OF_ASC_NODE":20.6203,"ARG_OF_PERICENTER":262.9123,"MEAN_ANOMALY":97.1711,"EPHEMERIS_TYPE":0,"CLASSIFICATION_TYPE":"U","NORAD_CAT_ID":55305,"ELEMENT_SET_NO":999,"REV_AT_EPOCH":17351,"BSTAR":5.5691e-5,"MEAN_MOTION_DOT":5.72e-6,"MEAN_MOTION_DDOT":0}]
